*******************************************************************************
Ephemeris / WWW_USER Fri Mar  7 11:25:22 2025 Pasadena, USA      / Horizons    
*******************************************************************************
Target body name: (2018 UG3)                      {source: JPL#15}
Center body name: Earth (399)                     {source: DE441}
Center-site name: Mauna Kea
*******************************************************************************
Start time      : A.D. 2018-Dec-20 03:57:00.0000 UT      
Stop  time      : A.D. 2018-Dec-20 16:41:00.0000 UT      
Step-size       : 1 minutes
*******************************************************************************
Target pole/equ : undefined
Target radii    : undefined                                                    
Center geodetic : 204.5278, 19.8260847, 4.21024   {E-lon(deg),Lat(deg),Alt(km)}
Center cylindric: 204.5278, 6006.35451, 2151.0229 {E-lon(deg),Dxy(km),Dz(km)}
Center pole/equ : ITRF93                          {East-longitude positive}
Center radii    : 6378.137, 6378.137, 6356.752 km {Equator_a, b, pole_c}       
Target primary  : Sun
Vis. interferer : MOON (R_eq= 1737.400) km        {source: DE441}
Rel. light bend : Sun                             {source: DE441}
Rel. lght bnd GM: 1.3271E+11 km^3/s^2                                          
Small-body perts: Yes                             {source: SB441-N16}
Atmos refraction: NO (AIRLESS)
RA format       : HMS
Time format     : CAL 
Calendar mode   : Mixed Julian/Gregorian
RTS-only print  : NO       
EOP file        : eop.250306.p250602                                           
EOP coverage    : DATA-BASED 1962-JAN-20 TO 2025-MAR-06. PREDICTS-> 2025-JUN-01
Units conversion: 1 au= 149597870.700 km, c= 299792.458 km/s, 1 day= 86400.0 s 
Table cut-offs 1: Elevation (-90.0deg=NO ),Airmass (>38.000=NO), Daylight (YES)
Table cut-offs 2: Solar elongation (  0.0,180.0=NO ),Local Hour Angle( 0.0=NO )
Table cut-offs 3: RA/DEC angular rate (     0.0=NO )                           
*******************************************************************************
Initial IAU76/J2000 heliocentric ecliptic osculating elements (au, days, deg.):
  EPOCH=  2458429.5 ! 2018-Nov-07.00 (TDB)         Residual RMS= .46194        
   EC= .4227384440318329   QR= .9585039390071354   TP= 2458393.2526467689      
   OM= 47.27406359171053   W=  314.2704472892426   IN= 6.159551265235018       
  Equivalent ICRF heliocentric cartesian coordinates (au, au/d):
   X= 7.430529944075828E-01  Y= 6.714692173902916E-01  Z= 2.851295671149762E-01
  VX=-1.040372162305418E-02 VY= 1.447630012002514E-02 VZ= 8.505235531163944E-03
Asteroid physical parameters (km, seconds, rotational period in hours):        
   GM= n.a.                RAD= n.a.               ROTPER= n.a.                
   H= 24.5                 G= .150                 B-V= n.a.                   
                           ALBEDO= n.a.            STYP= n.a.                  
*******************************************************************************
 Date__(UT)__HR:MN     R.A._________(ICRF)_________DEC
******************************************************
$$SOE
 2018-Dec-20 14:12  m  03 53 00.113002 +34 41 17.15222
 2018-Dec-20 14:13  m  03 53 00.147415 +34 41 17.06288
 2018-Dec-20 14:14  m  03 53 00.181869 +34 41 16.97354
 2018-Dec-20 14:15  m  03 53 00.216363 +34 41 16.88418
 2018-Dec-20 14:16  m  03 53 00.250896 +34 41 16.79482
 2018-Dec-20 14:17  m  03 53 00.285470 +34 41 16.70545
 2018-Dec-20 14:18  m  03 53 00.320084 +34 41 16.61608
 2018-Dec-20 14:19  m  03 53 00.354739 +34 41 16.52670
 2018-Dec-20 14:20  m  03 53 00.389433 +34 41 16.43731
 2018-Dec-20 14:21  m  03 53 00.424168 +34 41 16.34793
 2018-Dec-20 14:22  m  03 53 00.458942 +34 41 16.25854
 2018-Dec-20 14:23  m  03 53 00.493757 +34 41 16.16915
 2018-Dec-20 14:24  m  03 53 00.528612 +34 41 16.07977
 2018-Dec-20 14:25  m  03 53 00.563507 +34 41 15.99038
 2018-Dec-20 14:26  m  03 53 00.598442 +34 41 15.90100
 2018-Dec-20 14:27  m  03 53 00.633418 +34 41 15.81163
 2018-Dec-20 14:28  m  03 53 00.668433 +34 41 15.72226
 2018-Dec-20 14:29  m  03 53 00.703488 +34 41 15.63290
 2018-Dec-20 14:30  m  03 53 00.738584 +34 41 15.54355
 2018-Dec-20 14:31  m  03 53 00.773720 +34 41 15.45421
 2018-Dec-20 14:32  m  03 53 00.808895 +34 41 15.36488
 2018-Dec-20 14:33  m  03 53 00.844111 +34 41 15.27556
 2018-Dec-20 14:34  m  03 53 00.879367 +34 41 15.18626
 2018-Dec-20 14:35  m  03 53 00.914663 +34 41 15.09697
 2018-Dec-20 14:36  m  03 53 00.949999 +34 41 15.00769
 2018-Dec-20 14:37  m  03 53 00.985374 +34 41 14.91843
 2018-Dec-20 14:38  m  03 53 01.020790 +34 41 14.82920
 2018-Dec-20 14:39  m  03 53 01.056246 +34 41 14.73998
 2018-Dec-20 14:40  m  03 53 01.091742 +34 41 14.65078
 2018-Dec-20 14:41  m  03 53 01.127278 +34 41 14.56160
 2018-Dec-20 14:42  m  03 53 01.162853 +34 41 14.47245
 2018-Dec-20 14:43  m  03 53 01.198469 +34 41 14.38332
 2018-Dec-20 14:44  m  03 53 01.234124 +34 41 14.29422
 2018-Dec-20 14:45  m  03 53 01.269819 +34 41 14.20514
 2018-Dec-20 14:46  m  03 53 01.305554 +34 41 14.11609
 2018-Dec-20 14:47  m  03 53 01.341329 +34 41 14.02707
 2018-Dec-20 14:48  m  03 53 01.377144 +34 41 13.93809
 2018-Dec-20 14:49  m  03 53 01.412999 +34 41 13.84913
 2018-Dec-20 14:50  m  03 53 01.448893 +34 41 13.76021
 2018-Dec-20 14:51  m  03 53 01.484827 +34 41 13.67132
 2018-Dec-20 14:52  m  03 53 01.520800 +34 41 13.58246
 2018-Dec-20 14:53  m  03 53 01.556814 +34 41 13.49364
 2018-Dec-20 14:54     03 53 01.592867 +34 41 13.40486
 2018-Dec-20 14:55     03 53 01.628959 +34 41 13.31612
 2018-Dec-20 14:56     03 53 01.665091 +34 41 13.22742
 2018-Dec-20 14:57     03 53 01.701263 +34 41 13.13876
 2018-Dec-20 14:58     03 53 01.737474 +34 41 13.05014
 2018-Dec-20 14:59     03 53 01.773725 +34 41 12.96156
 2018-Dec-20 15:00     03 53 01.810015 +34 41 12.87303
 2018-Dec-20 15:01     03 53 01.846345 +34 41 12.78455
 2018-Dec-20 15:02     03 53 01.882714 +34 41 12.69611
 2018-Dec-20 15:03     03 53 01.919122 +34 41 12.60772
 2018-Dec-20 15:04     03 53 01.955570 +34 41 12.51938
 2018-Dec-20 15:05     03 53 01.992057 +34 41 12.43110
 2018-Dec-20 15:06     03 53 02.028584 +34 41 12.34286
 2018-Dec-20 15:07     03 53 02.065149 +34 41 12.25468
 2018-Dec-20 15:08     03 53 02.101754 +34 41 12.16655
 2018-Dec-20 15:09     03 53 02.138398 +34 41 12.07847
 2018-Dec-20 15:10     03 53 02.175081 +34 41 11.99046
 2018-Dec-20 15:11     03 53 02.211803 +34 41 11.90250
 2018-Dec-20 15:12     03 53 02.248564 +34 41 11.81460
 2018-Dec-20 15:13     03 53 02.285364 +34 41 11.72676
 2018-Dec-20 15:14     03 53 02.322203 +34 41 11.63898
 2018-Dec-20 15:15     03 53 02.359081 +34 41 11.55126
 2018-Dec-20 15:16     03 53 02.395997 +34 41 11.46361
 2018-Dec-20 15:17     03 53 02.432953 +34 41 11.37602
 2018-Dec-20 15:18     03 53 02.469947 +34 41 11.28850
 2018-Dec-20 15:19     03 53 02.506981 +34 41 11.20105
 2018-Dec-20 15:20     03 53 02.544052 +34 41 11.11366
 2018-Dec-20 15:21     03 53 02.581163 +34 41 11.02634
 2018-Dec-20 15:22     03 53 02.618312 +34 41 10.93910
 2018-Dec-20 15:23     03 53 02.655499 +34 41 10.85192
 2018-Dec-20 15:24     03 53 02.692725 +34 41 10.76482
 2018-Dec-20 15:25     03 53 02.729990 +34 41 10.67780
 2018-Dec-20 15:26     03 53 02.767293 +34 41 10.59084
 2018-Dec-20 15:27     03 53 02.804634 +34 41 10.50397
 2018-Dec-20 15:28     03 53 02.842013 +34 41 10.41717
 2018-Dec-20 15:29     03 53 02.879431 +34 41 10.33045
 2018-Dec-20 15:30     03 53 02.916887 +34 41 10.24382
 2018-Dec-20 15:31     03 53 02.954381 +34 41 10.15726
 2018-Dec-20 15:32  s  03 53 02.991913 +34 41 10.07078
 2018-Dec-20 15:33 A   03 53 03.029483 +34 41 09.98439
 2018-Dec-20 15:34 A   03 53 03.067091 +34 41 09.89808
 2018-Dec-20 15:35 A   03 53 03.104737 +34 41 09.81186
 2018-Dec-20 15:36 A   03 53 03.142421 +34 41 09.72573
 2018-Dec-20 15:37 A   03 53 03.180142 +34 41 09.63968
 2018-Dec-20 15:38 A   03 53 03.217902 +34 41 09.55372
 2018-Dec-20 15:39 A   03 53 03.255699 +34 41 09.46786
 2018-Dec-20 15:40 A   03 53 03.293533 +34 41 09.38208
 2018-Dec-20 15:41 A   03 53 03.331406 +34 41 09.29640
 2018-Dec-20 15:42 A   03 53 03.369315 +34 41 09.21081
 2018-Dec-20 15:43 A   03 53 03.407262 +34 41 09.12531
 2018-Dec-20 15:44 A   03 53 03.445247 +34 41 09.03991
 2018-Dec-20 15:45 A   03 53 03.483268 +34 41 08.95461
 2018-Dec-20 15:46 A   03 53 03.521327 +34 41 08.86941
 2018-Dec-20 15:47 A   03 53 03.559423 +34 41 08.78430
 2018-Dec-20 15:48 A   03 53 03.597557 +34 41 08.69930
 2018-Dec-20 15:49 A   03 53 03.635727 +34 41 08.61440
 2018-Dec-20 15:50 A   03 53 03.673934 +34 41 08.52960
 2018-Dec-20 15:51 A   03 53 03.712178 +34 41 08.44490
 2018-Dec-20 15:52 A   03 53 03.750459 +34 41 08.36031
 2018-Dec-20 15:53 A   03 53 03.788777 +34 41 08.27582
 2018-Dec-20 15:54 A   03 53 03.827131 +34 41 08.19144
 2018-Dec-20 15:55 A   03 53 03.865522 +34 41 08.10717
 2018-Dec-20 15:56 A   03 53 03.903949 +34 41 08.02301
 2018-Dec-20 15:57 A   03 53 03.942413 +34 41 07.93896
 2018-Dec-20 15:58 A   03 53 03.980914 +34 41 07.85502
 2018-Dec-20 15:59 A   03 53 04.019451 +34 41 07.77119
 2018-Dec-20 16:00 A   03 53 04.058024 +34 41 07.68748
 2018-Dec-20 16:01 N   03 53 04.096633 +34 41 07.60388
 2018-Dec-20 16:02 N   03 53 04.135278 +34 41 07.52040
 2018-Dec-20 16:03 N   03 53 04.173959 +34 41 07.43703
 2018-Dec-20 16:04 N   03 53 04.212676 +34 41 07.35378
 2018-Dec-20 16:05 N   03 53 04.251430 +34 41 07.27065
 2018-Dec-20 16:06 N   03 53 04.290218 +34 41 07.18765
 2018-Dec-20 16:07 N   03 53 04.329043 +34 41 07.10476
 2018-Dec-20 16:08 N   03 53 04.367903 +34 41 07.02199
 2018-Dec-20 16:09 N   03 53 04.406799 +34 41 06.93935
 2018-Dec-20 16:10 N   03 53 04.445730 +34 41 06.85683
 2018-Dec-20 16:11 N   03 53 04.484697 +34 41 06.77444
 2018-Dec-20 16:12 N   03 53 04.523699 +34 41 06.69217
 2018-Dec-20 16:13 N   03 53 04.562736 +34 41 06.61004
 2018-Dec-20 16:14 N   03 53 04.601808 +34 41 06.52803
